{"type":"FeatureCollection","features":[{"type":"Feature","properties":{"name":"CANADA"},"geometry":{"type":"Point","coordinates":[-91.0714917664233,56.44521802189778]}},{"type":"Feature","properties":{"name":"UNITED STATES OF AMERICA"},"geometry":{"type":"Point","coordinates":[-90.36496205150216,38.274250201716754]}},{"type":"Feature","properties":{"name":"KAZAKHSTAN"},"geometry":{"type":"Point","coordinates":[65.25235867857143,47.26379638392856]}},{"type":"Feature","properties":{"name":"INDONESIA"},"geometry":{"type":"Point","coordinates":[121.59253826666665,-2.0391247555555556]}},{"type":"Feature","properties":{"name":"ARGENTINA"},"geometry":{"type":"Point","coordinates":[-65.0851765272727,-37.0167668]}},{"type":"Feature","properties":{"name":"CHILE"},"geometry":{"type":"Point","coordinates":[-71.4484350319149,-38.11559671276595]}},{"type":"Feature","properties":{"name":"SOMALIA"},"geometry":{"type":"Point","coordinates":[46.897339945945966,6.553593081081082]}},{"type":"Feature","properties":{"name":"KENYA"},"geometry":{"type":"Point","coordinates":[37.823721432432436,1.1144695945945948]}},{"type":"Feature","properties":{"name":"SUDAN"},"geometry":{"type":"Point","coordinates":[29.33744083950616,12.80797675308642]}},{"type":"Feature","properties":{"name":"CHAD"},"geometry":{"type":"Point","coordinates":[17.99555681034483,12.995734793103448]}},{"type":"Feature","properties":{"name":"RUSSIA"},"geometry":{"type":"Point","coordinates":[90.86666711184206,59.09556891228069]}},{"type":"Feature","properties":{"name":"NORWAY"},"geometry":{"type":"Point","coordinates":[18.0862989,66.23183393999999]}},{"type":"Feature","properties":{"name":"GREENLAND"},"geometry":{"type":"Point","coordinates":[-41.03145590909091,74.14763175757577]}},{"type":"Feature","properties":{"name":"SOUTH AFRICA"},"geometry":{"type":"Point","coordinates":[24.719575000000003,-28.603900060975615]}},{"type":"Feature","properties":{"name":"MEXICO"},"geometry":{"type":"Point","coordinates":[-103.13076272352943,23.874573264705884]}},{"type":"Feature","properties":{"name":"BRAZIL"},"geometry":{"type":"Point","coordinates":[-56.92618139901478,-9.656487300492616]}},{"type":"Feature","properties":{"name":"BOLIVIA"},"geometry":{"type":"Point","coordinates":[-64.13008903333333,-16.336588166666665]}},{"type":"Feature","properties":{"name":"PERU"},"geometry":{"type":"Point","coordinates":[-74.08178505263159,-7.753107973684208]}},{"type":"Feature","properties":{"name":"COLOMBIA"},"geometry":{"type":"Point","coordinates":[-72.65296166000003,4.490703469999999]}},{"type":"Feature","properties":{"name":"VENEZUELA"},"geometry":{"type":"Point","coordinates":[-66.85159614130438,7.213489043478258]}},{"type":"Feature","properties":{"name":"FRANCE"},"geometry":{"type":"Point","coordinates":[3.3000005625000006,47.00465489583332]}},{"type":"Feature","properties":{"name":"MALI"},"geometry":{"type":"Point","coordinates":[-5.802088328947367,14.079544513157888]}},{"type":"Feature","properties":{"name":"NIGER"},"geometry":{"type":"Point","coordinates":[8.737445810344827,15.478241672413795]}},{"type":"Feature","properties":{"name":"NIGERIA"},"geometry":{"type":"Point","coordinates":[8.348453448275862,9.731548293103447]}},{"type":"Feature","properties":{"name":"ANGOLA"},"geometry":{"type":"Point","coordinates":[17.379206999999997,-10.938472242424242]}},{"type":"Feature","properties":{"name":"MADAGASCAR"},"geometry":{"type":"Point","coordinates":[46.989215081632636,-17.97148510204082]}},{"type":"Feature","properties":{"name":"ALGERIA"},"geometry":{"type":"Point","coordinates":[3.0162638870967737,29.66578019354839]}},{"type":"Feature","properties":{"name":"IRAQ"},"geometry":{"type":"Point","coordinates":[44.398741733333324,33.43860503333334]}},{"type":"Feature","properties":{"name":"MONGOLIA"},"geometry":{"type":"Point","coordinates":[104.58542652,47.20451453333333]}},{"type":"Feature","properties":{"name":"INDIA"},"geometry":{"type":"Point","coordinates":[83.58820521323528,23.96568654411765]}},{"type":"Feature","properties":{"name":"PAKISTAN"},"geometry":{"type":"Point","coordinates":[69.44356336363637,30.790385772727266]}},{"type":"Feature","properties":{"name":"AFGHANISTAN"},"geometry":{"type":"Point","coordinates":[67.76801111594203,34.82847544927535]}},{"type":"Feature","properties":{"name":"IRAN"},"geometry":{"type":"Point","coordinates":[53.23184946052631,33.35402038157895]}},{"type":"Feature","properties":{"name":"SWEDEN"},"geometry":{"type":"Point","coordinates":[16.563280100000007,62.739388450000014]}},{"type":"Feature","properties":{"name":"BELARUS"},"geometry":{"type":"Point","coordinates":[28.30033811111112,53.34756866666665]}},{"type":"Feature","properties":{"name":"UKRAINE"},"geometry":{"type":"Point","coordinates":[30.450890344086016,48.68698113978493]}},{"type":"Feature","properties":{"name":"POLAND"},"geometry":{"type":"Point","coordinates":[19.475697044444434,51.74479997777778]}},{"type":"Feature","properties":{"name":"ROMANIA"},"geometry":{"type":"Point","coordinates":[25.188283613636358,45.85676193181819]}},{"type":"Feature","properties":{"name":"GERMANY"},"geometry":{"type":"Point","coordinates":[10.691126017241384,51.04436703448275]}},{"type":"Feature","properties":{"name":"GREECE"},"geometry":{"type":"Point","coordinates":[23.13811125581396,39.796313651162784]}},{"type":"Feature","properties":{"name":"TURKEY"},"geometry":{"type":"Point","coordinates":[36.901256425925915,38.378143222222235]}},{"type":"Feature","properties":{"name":"SPAIN"},"geometry":{"type":"Point","coordinates":[-4.450721470588236,40.17528431372549]}},{"type":"Feature","properties":{"name":"NEW ZEALAND"},"geometry":{"type":"Point","coordinates":[175.48133422222216,-38.1971513888889]}},{"type":"Feature","properties":{"name":"AUSTRALIA"},"geometry":{"type":"Point","coordinates":[133.2459192232142,-23.80400007142856]}},{"type":"Feature","properties":{"name":"CHINA"},"geometry":{"type":"Point","coordinates":[105.66841284347821,37.30699487391305]}},{"type":"Feature","properties":{"name":"ITALY"},"geometry":{"type":"Point","coordinates":[12.62657565151515,43.08665778787878]}},{"type":"Feature","properties":{"name":"UNITED KINGDOM"},"geometry":{"type":"Point","coordinates":[-3.084601875,53.89674202083332]}},{"type":"Feature","properties":{"name":"FINLAND"},"geometry":{"type":"Point","coordinates":[25.886752049999995,65.228398075]}},{"type":"Feature","properties":{"name":"JAPAN"},"geometry":{"type":"Point","coordinates":[135.99567897297297,35.720259405405415]}},{"type":"Feature","properties":{"name":"YEMEN"},"geometry":{"type":"Point","coordinates":[46.4715041818182,15.511892840909091]}},{"type":"Feature","properties":{"name":"SAUDI ARABIA"},"geometry":{"type":"Point","coordinates":[43.59399496052632,24.04020402631579]}},{"type":"Feature","properties":{"name":"MOROCCO"},"geometry":{"type":"Point","coordinates":[-9.425936349206346,28.76984336507937]}},{"type":"Feature","properties":{"name":"EGYPT"},"geometry":{"type":"Point","coordinates":[31.69790109090909,28.17505597727273]}},{"type":"Feature","properties":{"name":"LIBYA"},"geometry":{"type":"Point","coordinates":[16.638207714285716,28.476834160714283]}},{"type":"Feature","properties":{"name":"ETHIOPIA"},"geometry":{"type":"Point","coordinates":[39.209157610169484,8.98341698305085]}}]}